#dP2023  6 26 12  0  0.00000000      96 __u+U ITR00 EXT  IAC
## 2268 129600.00000000   900.00000000 60121 0.5000000000000
+  118   C06C07C08C09C10C11C12C13C14C16C19C20C21C22C23C24C25
+        C26C27C28C29C30C32C33C34C35C36C37C38C39C41C42C43C44
+        C45C46E02E03E04E05E07E08E09E10E11E12E13E14E15E18E19
+        E21E24E25E26E27E30E31E33E34E36G01G02G03G04G05G06G07
+        G08G09G10G11G12G13G14G15G16G17G18G19G20G21G22G23G24
+        G25G26G27G28G29G30G31G32J02J03J04R01R02R03R04R05R07
+        R08R09R11R12R13R14R15R16R17R18R19R20R21R22R24R25  0
++        10  9  7  8 10  9  9 10  9 10  7  7  9  7  8  8  9
++         9  7  9 10  8  8  9  6  9  8  8 10  8 10  7  8  9
++         7  8  7  6  7  7  8  7  8  7  7  8  8  7  7  8  8
++         7  8  8  8  6  7  7  6  8  6  7  7  9  8  8  7  6
++         7  8  7  7  7  6  7  7  7  7  7  8  7  7  7  8  7
++         7  6 11  8  7  7  9  7  8  7 10  7  9  9  7  8  7
++         9  8  8  8  9  6  6  8  8  8  8  9  8  6  8  9  0
%c M  cc GPS ccc cccc cccc cccc cccc ccccc ccccc ccccc ccccc
%c cc cc ccc ccc cccc cccc cccc cccc ccccc ccccc ccccc ccccc
%f  0.0000000  0.000000000  0.00000000000  0.000000000000000
%f  0.0000000  0.000000000  0.00000000000  0.000000000000000
%i    0    0    0    0      0      0      0      0         0
%i    0    0    0    0      0      0      0      0         0
/* IAC                                ULTRA-RAPID PREDICTION
/* S/V CLOCKS ARE ALIGNED TO GNSS TIME                      
/* G:C1WC2W R:C1PC2P E:C1XC5X C:C2IC6I J:C1CC2S             
/* PCV:IGS20_2247 OL/AL:FES2004  NONE     YN ORB:CoN CLK:CoN
*  2023 06 27  7 15  0.00000000
PC06 -19489.715965  30311.080276 -22074.283705   -170.685660
PC07  -4972.506675  39743.699654 -12821.050332   -234.813741
PC08   -905.471686  22016.997047  35966.758532    447.060278
PC09 -10637.298917  28973.090148 -28539.117358    485.553446
PC10    342.259260  41179.967955  -7223.454415    -97.688214
PC11 -17210.937588  -3560.125704 -21610.223766    695.792565
PC12  -1273.134486 -18108.844072 -21167.445844    743.526351
PC13   5925.003923  25278.454961  33424.300463    304.392318
PC14 -16327.940340 -13823.516605  17966.511254    473.446458
PC16 -20568.460580  30008.700154 -21329.739725     27.996216
PC19  16483.668719   3279.581663 -22248.747333   -929.652782
PC20  14032.168631  20744.021131 -12260.754085    475.682543
PC21  -2839.131533 -27119.732118  -5996.813458   -927.763242
PC22   9591.632410 -17018.363056 -19943.258101   -422.234221
PC23 -18760.697621   8801.328195 -18678.846215   -969.141577
PC24 -19583.281017 -15088.273441  12921.002615    108.705597
PC25 -27270.722940  -3146.729887  -4965.689740    155.901652
PC26  -2147.563523 -16916.225585  22073.671474   -140.570189
PC27  -6306.948252  21794.268118  16228.734191    161.184177
PC28 -19377.144403  20031.995502   1363.807201    119.901678
PC29  21760.652195  -6247.079708  16306.247499    139.548409
PC30  10724.091360  11890.017885  22843.568956     -1.601489
PC32   2955.302460  27058.511162   6120.993101   -544.478025
PC33 -16564.559806  -3331.042234  22216.433928   -902.292634
PC34 -11893.537724 -10767.728743 -22849.644775    202.145049
PC35  18873.763248 -20513.066374   -876.520360    599.953519
PC36  27246.828735   4299.192406   4274.823278   -360.558008
PC37    605.684548  16786.263979 -22269.465973   -788.055341
PC38  -9807.041008  20697.827088  35435.385815     87.834116
PC39 -24112.215825  30815.991432 -15957.003694     -3.518941
PC41 -10001.043011  16378.442189  20306.298099   -913.111444
PC42 -13591.212275 -21739.396606  11099.379873   -633.596169
PC43 -21621.866346   5343.482445 -16838.876557     28.079890
PC44   5531.377275 -22129.291578 -16075.484268    150.858992
PC45  18329.661791  -8999.581318  19035.109107   -115.431554
PC46  20741.314700  14513.224957 -11779.612959    -64.573554
PE02  21964.975640  19253.569495   4836.754873     46.431875
PE03  13075.000711  12843.672189 -23238.547296    -30.390022
PE04 -18478.652702   8738.517989  21417.662172   -153.898064
PE05   -100.673643  27287.079065 -11456.576656     -5.758226
PE07  13242.486376 -25486.742420  -7179.674551    -55.714242
PE08  18336.085630  -8444.038763 -21649.407071   -105.422993
PE09 -13255.893113  25405.192101   7386.908669    -64.489461
PE10 -26071.375998  11356.244125   8191.857208   -544.248330
PE11 -18468.532974  15519.915616  17143.301101   2334.671598
PE12 -29027.207400   5720.484461  -1198.192970   -595.822883
PE13  19092.922622 -15303.411951 -16657.796771    -19.311388
PE14  -8634.362168  22605.548577    831.193485    265.794536
PE15  29030.525995  -5556.104649   1542.596556    -32.617934
PE18   3380.714347 -30230.274073 -10663.725881    229.434312
PE19 -11477.373316 -15450.355643  22499.924259  -2206.432259
PE21 -10633.228493 -24543.993804  12681.766602   -537.376476
PE24  -8198.010866  15470.756624 -23879.634831   -177.689238
PE25  10349.709468  24514.630551 -12958.078754   -607.414061
PE26  -2761.463127 -15953.523017 -24784.131238    146.140696
PE27   7518.644841 -15962.213350  23770.781453    -84.882484
PE30  21268.783449   2470.891170  20435.415089   -288.800100
PE31 -21033.825735  -1925.868879 -20727.987076   -526.758234
PE33 -21748.082027  -7390.512084 -18679.219961   -442.649151
PE34  21879.154791   7252.084625  18562.738676    -53.005595
PE36   1869.121342  15960.542548  24852.436920    -77.378209
PG01  -4618.515667 -14115.318096 -22378.815262    175.956603
PG02   2100.186589 -15529.309133 -20917.725244   -581.868275
PG03 -11448.455289 -22414.500645  -8808.592376   -255.349733
PG04  -2107.155645 -22180.411882  14382.326143     79.577336
PG05  -2318.627580  17386.370806  19731.286916   -132.687203
PG06 -26078.809380   5246.679837    863.530508    582.553166
PG07 -20022.576847  -8079.649562  16246.240400    141.215636
PG08   5509.872591 -25526.090073  -3570.350070   -129.362571
PG09 -10055.105519 -14382.334909  19849.855427   -126.100981
PG10  19922.091007   6178.853563 -16449.150676    -42.843116
PG11 -18176.004531  12698.087899  14599.999846   -252.048683
PG12   7209.322264  23002.887640 -11514.461402   -393.655820
PG13 -13365.591887  22694.105090   2203.154287    539.512677
PG14 -20525.823781  -9062.991339 -14317.308761    103.901691
PG15  -1727.546854  26050.424415  -4520.644316     52.652227
PG16   7689.224925 -14018.037119  20820.517295   -487.194215
PG17 -16252.055822   2858.632573 -20411.767694    719.559179
PG18  21943.593869   5856.439294  13901.519958   -323.612621
PG19 -17674.707558   9843.829451 -17258.118501    336.109973
PG20 -10762.490233  11167.044875  21588.714650    425.783398
PG21   4756.293982 -15844.704844 -20025.985770    152.741532
PG22  17095.253587 -13812.027915 -14347.123436    504.187167
PG23  20405.367858  15861.856952  -6470.677190     37.223366
PG24    506.130379  16255.050408 -21314.728696   -238.791272
PG25  17166.541800  20448.673423   -936.099021    452.471690
PG26  16484.692373  -4644.111499  20259.524088    238.058086
PG27  12772.908783 -21809.681403   7191.089911      8.358358
PG28  26062.396624  -4953.458582  -1283.996255     83.619905
PG29   7133.697590  16514.908588  19453.699817   -604.020362
PG30 -25545.926474  -1207.862506   7774.956887   -508.314955
PG31  22446.726885 -10712.183005   9720.119139   -218.976307
PG32  16542.080935  -5734.601909 -19733.666752   -509.137595
PJ02 -22183.950383  19312.598402 -25582.145492     -0.856639
PJ03 -28763.448974  30163.675646  12150.587994      7.626966
PJ04 -26396.976610  27640.764809  23736.259798     95.921397
PR01   8636.622900 -12393.274937 -20556.765972     60.228262
PR02   1465.135516 -24589.491594  -6455.682290    -22.665950
PR03  -6750.526823 -22043.138596  10904.406730     80.450666
PR04 -10700.914535  -7529.552187  21924.368391    192.795044
PR05  -9122.770645  11117.502212  21085.636715    114.841760
PR07   6974.460108  21681.560950 -11493.813830     58.906550
PR08  10837.930685   7309.245770 -21849.564300    -71.435297
PR09    202.103909  12237.330061 -22348.222401    128.046093
PR11  23518.205406   9370.396338   3057.798174    -89.877324
PR12  16670.067731  -2257.489296  19208.707359     28.521682
PR13   1785.821245 -11252.038448  22813.316605    -36.507151
PR14 -16590.563871 -14622.674972  12748.958530     24.858567
PR15 -23498.926028  -8958.243285  -4272.365854     88.271980
PR16 -16859.920379   2026.981067 -19034.924481     16.054637
PR17  -4827.076029  -9479.164212 -23184.393739   -382.278218
PR18 -17999.128862   2132.748560 -17963.315189     88.672991
PR19 -22381.331714  11200.995518  -4917.986295   -237.762972
PR20 -13027.232719  15878.951324  15153.003702    -95.495522
PR21   6036.073714   8584.191556  23241.903866    -18.361574
PR22  18726.718022  -1895.847863  17230.704360     85.717343
PR24  11774.990371 -16511.960066 -15474.213900    -13.884335
PR25   4513.101673   9978.990575  23036.243977     58.008239
EOF
